NORAD_CAT_ID,OBJECT_NAME,OBJECT_TYPE,EPOCH,MEAN_MOTION,ECCENTRICITY,INCLINATION,RA_OF_ASC_NODE,ARG_OF_PERICENTER,MEAN_ANOMALY,BSTAR,MEAN_MOTION_DOT,MEAN_MOTION_DDOT,TLE_LINE0,TLE_LINE1,TLE_LINE2,SEMIMAJOR_AXIS,PERIOD,APOGEE,PERIGEE,DECAYED
52492.0,STARLINK-3916,PAYLOAD,2023-11-10 13:30:36,15.08848058,0.0001148,53.2161,265.4901,107.6991,252.4126,0.00086111,0.00013446,0.0,0 STARLINK-3916,1 52492U 22049AT  23314.56292650  .00013446  00000-0  86111-3 0  9995,2 52492  53.2161 265.4901 0001148 107.6991 252.4126 15.08848058 84052,6917.856,95.437,540.515,538.927,0.0
52492.0,STARLINK-3916,PAYLOAD,2023-11-11 02:13:42,15.08831014,0.0001632,53.2177,263.1087,109.5355,250.5814,0.00015105,2.116e-05,0.0,0 STARLINK-3916,1 52492U 22049AT  23315.09284989  .00002116  00000-0  15105-3 0  9997,2 52492  53.2177 263.1087 0001632 109.5355 250.5814 15.08831014 84295,6917.908,95.438,540.902,538.644,0.0
52492.0,STARLINK-3916,PAYLOAD,2023-11-11 13:21:24,15.08838122,0.000153,53.2185,261.0288,85.0388,275.0779,0.00025891,3.835e-05,0.0,0 STARLINK-3916,1 52492U 22049AT  23315.55653166  .00003835  00000-0  25891-3 0  9997,2 52492  53.2185 261.0288 0001530  85.0388 275.0779 15.08838122 84205,6917.886,95.438,540.81,538.693,0.0
52492.0,STARLINK-3916,PAYLOAD,2023-11-12 03:39:52,15.08839449,0.0001499,53.2181,258.3546,99.0349,261.0813,0.00011651,1.567e-05,0.0,0 STARLINK-3916,1 52492U 22049AT  23316.15269299  .00001567  00000-0  11651-3 0  9993,2 52492  53.2181 258.3546 0001499  99.0349 261.0813 15.08839449 84457,6917.882,95.438,540.784,538.71,0.0
52492.0,STARLINK-3916,PAYLOAD,2023-11-12 13:12:11,15.0883582,0.0001381,53.2172,256.5686,98.8772,261.2376,7.3902e-05,8.88e-06,0.0,0 STARLINK-3916,1 52492U 22049AT  23316.55013529  .00000888  00000-0  73902-4 0  9993,2 52492  53.2172 256.5686 0001381  98.8772 261.2376 15.08835820 84353,6917.893,95.438,540.714,538.803,0.0
52492.0,STARLINK-3916,PAYLOAD,2023-11-13 03:30:39,15.08845282,0.0001487,53.2173,253.8917,89.2844,270.8319,0.00016689,2.369e-05,0.0,0 STARLINK-3916,1 52492U 22049AT  23317.14629409  .00002369  00000-0  16689-3 0  9993,2 52492  53.2173 253.8917 0001487  89.2844 270.8319 15.08845282 84448,6917.864,95.437,540.758,538.701,0.0
52492.0,STARLINK-3916,PAYLOAD,2023-11-13 19:24:31,15.08839431,0.0001734,53.2178,250.9194,73.0772,287.041,0.00015461,2.173e-05,0.0,0 STARLINK-3916,1 52492U 22049AT  23317.80869963  .00002173  00000-0  15461-3 0  9997,2 52492  53.2178 250.9194 0001734  73.0772 287.0410 15.08839431 84546,6917.882,95.438,540.947,538.548,0.0
52492.0,STARLINK-3916,PAYLOAD,2023-11-14 03:21:26,15.08846078,0.0001542,53.2175,249.4313,87.2682,272.8487,0.00013885,1.923e-05,0.0,0 STARLINK-3916,1 52492U 22049AT  23318.13989509  .00001923  00000-0  13885-3 0  9993,2 52492  53.2175 249.4313 0001542  87.2682 272.8487 15.08846078 84757,6917.862,95.437,540.794,538.66,0.0
52492.0,STARLINK-3916,PAYLOAD,2023-11-14 12:53:45,15.08854526,0.0001437,53.2184,247.643,73.9416,286.1734,-0.00043858,-7.264e-05,0.0,0 STARLINK-3916,1 52492U 22049AT  23318.53732743 -.00007264  00000-0 -43858-3 0  9992,2 52492  53.2184 247.6430 0001437  73.9416 286.1734 15.08854526 84656,6917.836,95.437,540.695,538.707,0.0
52492.0,STARLINK-3916,PAYLOAD,2023-11-15 01:36:52,15.0881369,0.0001924,53.2183,245.2684,85.902,274.2192,-0.00031913,-5.36e-05,0.0,0 STARLINK-3916,1 52492U 22049AT  23319.06727196 -.00005360  00000-0 -31913-3 0  9991,2 52492  53.2183 245.2684 0001924  85.9020 274.2192 15.08813690 84894,6917.961,95.439,541.157,538.495,0.0
52492.0,STARLINK-3916,PAYLOAD,2023-11-15 04:47:37,15.08850132,0.0001979,53.2182,244.6736,72.0372,288.0836,0.00024514,3.616e-05,0.0,0 STARLINK-3916,1 52492U 22049AT  23319.19973608  .00003616  00000-0  24514-3 0  9995,2 52492  53.2182 244.6736 0001979  72.0372 288.0836 15.08850132 84914,6917.849,95.437,541.083,538.345,0.0
52492.0,STARLINK-3916,PAYLOAD,2023-11-15 19:06:06,15.08833917,0.0001324,53.2176,241.9957,81.3314,278.7828,-6.3784e-05,-1.303e-05,0.0,0 STARLINK-3916,1 52492U 22049AT  23319.79590451 -.00001303  00000-0 -63784-4 0  9998,2 52492  53.2176 241.9957 0001324  81.3314 278.7828 15.08833917 85005,6917.899,95.438,540.68,538.848,0.0
52492.0,STARLINK-3916,PAYLOAD,2023-11-16 04:38:24,15.08841681,0.0001773,53.217,240.2113,91.8028,268.3167,6.8459e-05,8.02e-06,0.0,0 STARLINK-3916,1 52492U 22049AT  23320.19334144  .00000802  00000-0  68459-4 0  9994,2 52492  53.2170 240.2113 0001773  91.8028 268.3167 15.08841681 85065,6917.875,95.437,540.967,538.514,0.0
52492.0,STARLINK-3916,PAYLOAD,2023-11-18 01:09:12,15.08845741,0.0001671,53.2172,231.8843,90.4156,269.7028,0.00011274,1.507e-05,0.0,0 STARLINK-3916,1 52492U 22049AT  23322.04805791  .00001507  00000-0  11274-3 0  9996,2 52492  53.2172 231.8843 0001671  90.4156 269.7028 15.08845741 85340,6917.863,95.437,540.884,538.572,0.0
52492.0,STARLINK-3916,PAYLOAD,2023-11-18 10:41:31,15.08841255,0.0001678,53.2164,230.1016,87.3464,272.772,1.5987e-05,-3.4e-07,0.0,0 STARLINK-3916,1 52492U 22049AT  23322.44549929 -.00000034  00000-0  15987-4 0  9999,2 52492  53.2164 230.1016 0001678  87.3464 272.7720 15.08841255 85247,6917.877,95.437,540.902,538.581,0.0
52492.0,STARLINK-3916,PAYLOAD,2023-11-18 17:03:04,15.08839982,0.0001818,53.2181,228.9134,87.8176,272.3024,4.8518e-05,4.84e-06,0.0,0 STARLINK-3916,1 52492U 22049AT  23322.71046322  .00000484  00000-0  48518-4 0  9992,2 52492  53.2181 228.9134 0001818  87.8176 272.3024 15.08839982 85442,6917.88,95.438,541.003,538.488,0.0
52492.0,STARLINK-3916,PAYLOAD,2023-11-19 10:32:18,15.08844501,0.0001627,53.2192,225.6432,98.3348,261.7828,2.6813e-05,1.39e-06,0.0,0 STARLINK-3916,1 52492U 22049AT  23323.43910190  .00000139  00000-0  26813-4 0  9996,2 52492  53.2192 225.6432 0001627  98.3348 261.7828 15.08844501 85396,6917.867,95.437,540.857,538.606,0.0
52492.0,STARLINK-3916,PAYLOAD,2023-11-19 21:40:00,15.08843671,0.0001716,53.2196,223.5619,94.5268,265.592,2.2834e-05,7.5e-07,0.0,0 STARLINK-3916,1 52492U 22049AT  23323.90278087  .00000075  00000-0  22834-4 0  9998,2 52492  53.2196 223.5619 0001716  94.5268 265.5920 15.08843671 85462,6917.869,95.437,540.921,538.547,0.0
52492.0,STARLINK-3916,PAYLOAD,2023-11-20 02:26:09,15.08846235,0.000173,53.218,222.6686,116.2242,243.8928,8.2568e-05,1.026e-05,0.0,0 STARLINK-3916,1 52492U 22049AT  23324.10149572  .00001026  00000-0  82568-4 0  9994,2 52492  53.2180 222.6686 0001730 116.2242 243.8928 15.08846235 85656,6917.861,95.437,540.923,538.53,0.0
52492.0,STARLINK-3916,PAYLOAD,2023-11-20 10:23:05,15.08841466,0.0001958,53.2188,221.181,85.7026,274.419,0.00010297,1.351e-05,0.0,0 STARLINK-3916,1 52492U 22049AT  23324.43270128  .00001351  00000-0  10297-3 0  9992,2 52492  53.2188 221.1810 0001958  85.7026 274.4190 15.08841466 85549,6917.876,95.437,541.095,538.386,0.0
52492.0,STARLINK-3916,PAYLOAD,2023-11-20 21:30:47,15.08836226,0.0001651,53.2187,219.0992,86.4274,273.6907,0.0001567,2.206e-05,0.0,0 STARLINK-3916,1 52492U 22049AT  23324.89638294  .00002206  00000-0  15670-3 0  9994,2 52492  53.2187 219.0992 0001651  86.4274 273.6907 15.08836226 85611,6917.892,95.438,540.899,538.615,0.0
52492.0,STARLINK-3916,PAYLOAD,2023-11-21 10:13:52,15.08842815,0.0001638,53.2179,216.7215,88.0128,272.1051,7.6649e-05,9.32e-06,0.0,0 STARLINK-3916,1 52492U 22049AT  23325.42629972  .00000932  00000-0  76649-4 0  9995,2 52492  53.2179 216.7215 0001638  88.0128 272.1051 15.08842815 85698,6917.872,95.437,540.87,538.604,0.0
52492.0,STARLINK-3916,PAYLOAD,2023-11-21 21:21:34,15.08842799,0.0001604,53.2171,214.6404,87.4375,272.6801,8.9446e-05,1.136e-05,0.0,0 STARLINK-3916,1 52492U 22049AT  23325.88997999  .00001136  00000-0  89446-4 0  9998,2 52492  53.2171 214.6404 0001604  87.4375 272.6801 15.08842799 85764,6917.872,95.437,540.846,538.627,0.0
52492.0,STARLINK-3916,PAYLOAD,2023-11-22 00:32:20,15.08848181,0.0001619,53.217,214.0445,81.1254,278.9921,7.7405e-05,9.44e-06,0.0,0 STARLINK-3916,1 52492U 22049AT  23326.02245661  .00000944  00000-0  77405-4 0  9995,2 52492  53.2170 214.0445 0001619  81.1254 278.9921 15.08848181 85948,6917.855,95.437,540.84,538.6,0.0
52492.0,STARLINK-3916,PAYLOAD,2023-11-22 21:12:20,15.08848862,0.0001593,53.2174,210.1774,89.8244,270.2931,0.00014174,1.969e-05,0.0,0 STARLINK-3916,1 52492U 22049AT  23326.88357251  .00001969  00000-0  14174-3 0  9999,2 52492  53.2174 210.1774 0001593  89.8244 270.2931 15.08848862 85918,6917.853,95.437,540.82,538.616,0.0
52492.0,STARLINK-3916,PAYLOAD,2023-11-23 01:58:29,15.08855825,0.0001821,53.2178,209.2818,74.4272,285.6921,0.00023058,3.385e-05,0.0,0 STARLINK-3916,1 52492U 22049AT  23327.08229040  .00003385  00000-0  23058-3 0  9991,2 52492  53.2178 209.2818 0001821  74.4272 285.6921 15.08855825 86103,6917.832,95.437,540.957,538.437,0.0
52492.0,STARLINK-3916,PAYLOAD,2023-11-23 19:27:45,15.0883021,0.0001427,53.2167,206.0151,93.683,266.4326,-5.008e-05,-1.085e-05,0.0,0 STARLINK-3916,1 52492U 22049AT  23327.81094478 -.00001085  00000-0 -50080-4 0  9990,2 52492  53.2167 206.0151 0001427  93.6830 266.4326 15.08830210 86210,6917.91,95.438,540.762,538.788,0.0
52492.0,STARLINK-3916,PAYLOAD,2023-11-23 22:38:31,15.08832283,0.0001567,53.2166,205.4202,90.6071,269.5101,-7.7534e-05,-1.521e-05,0.0,0 STARLINK-3916,1 52492U 22049AT  23327.94342476 -.00001521  00000-0 -77534-4 0  9996,2 52492  53.2166 205.4202 0001567  90.6071 269.5101 15.08832283 86079,6917.904,95.438,540.853,538.685,0.0
52492.0,STARLINK-3916,PAYLOAD,2023-11-24 01:49:18,15.08831562,0.0001419,53.2161,204.8247,94.8464,265.269,-7.4185e-05,-1.468e-05,0.0,0 STARLINK-3916,1 52492U 22049AT  23328.07590511 -.00001468  00000-0 -74185-4 0  9995,2 52492  53.2161 204.8247 0001419  94.8464 265.2690 15.08831562 86091,6917.906,95.438,540.753,538.79,0.0
52492.0,STARLINK-3916,PAYLOAD,2023-11-24 19:18:32,15.08837851,0.0001407,53.2161,201.5537,105.3203,254.7945,-5.9097e-05,-1.228e-05,0.0,0 STARLINK-3916,1 52492U 22049AT  23328.80454603 -.00001228  00000-0 -59097-4 0  9996,2 52492  53.2161 201.5537 0001407 105.3203 254.7945 15.08837851 86366,6917.887,95.438,540.725,538.779,0.0
